0 FENGYUN 1C DEB
1 30944U 99025BAJ 13280.62542948  .00000826  00000-0  20682-3 0  8445
2 30944 098.8302 048.7498 0161879 162.2612 256.7184 14.46757482346569
0 FENGYUN 1C DEB
1 30944U 99025BAJ 13283.19672720  .00000843  00000-0  21089-3 0  8454
2 30944 098.8304 051.4305 0161962 154.5819 328.8616 14.46766585346931
0 FENGYUN 1C DEB
1 30944U 99025BAJ 13285.20199225  .00000725  00000-0  18312-3 0  8467
2 30944 098.8309 053.5213 0162011 148.6019 332.9657 14.46770222347226
0 FENGYUN 1C DEB
1 30944U 99025BAJ 13287.20725991  .00000896  00000-0  22299-3 0  8473
2 30944 098.8314 055.6120 0162076 142.6111 337.1281 14.46773543347511
0 FENGYUN 1C DEB
1 30944U 99025BAJ 13289.61613663  .00001043  00000-0  25747-3 0  8489
2 30944 098.8319 058.1238 0162134 135.4156 283.4769 14.46781091347867
0 FENGYUN 1C DEB
1 30944U 99025BAJ 13291.62160249  .00001082  00000-0  26655-3 0  8493
2 30944 098.8320 060.2151 0162118 129.4329 288.7491 14.46785966348152
0 FENGYUN 1C DEB
1 30944U 99025BAJ 13293.85245709  .00001133  00000-0  27837-3 0  8507
2 30944 098.8319 062.5418 0162158 122.7813 027.9757 14.46792285348474
